ONEWEB-0658             
1 55819U 23029Z   26026.13920752  .00000065  00000+0  13127-3 0  9996
2 55819  87.9250 333.2112 0001342  84.6707 275.4579 13.19726079140186
ONEWEB-0660             
1 55820U 23029AA  26026.16699321  .00000169  00000+0  42186-3 0  9998
2 55820  87.9034 318.0020 0001583  68.5824 291.5475 13.14503475140749
ONEWEB-0661             
1 55821U 23029AB  26026.27800088  .00000069  00000+0  15213-3 0  9995
2 55821  87.9020 318.0409 0001705  66.6279 293.5030 13.14503525140740
ONEWEB-0662             
1 55822U 23029AC  26026.31286748 -.00000128  00000+0 -37837-3 0  9996
2 55822  87.9022 318.0408 0001541  68.6500 291.4794 13.14503453140798
ONEWEB-0663             
1 55823U 23029AD  26026.27982274  .00000092  00000+0  19509-3 0  9993
2 55823  87.9241 302.8134 0001309  67.8213 292.3059 13.20858273142418
ONEWEB-0664             
1 55824U 23029AE  26026.29898092  .00000035  00000+0  54799-4 0  9998
2 55824  87.9219 302.8079 0001886  66.5782 293.5550 13.20774056142414
ONEWEB-0665             
1 55825U 23029AF  26026.27480280  .00000049  00000+0  97746-4 0  9997
2 55825  87.9026 318.0203 0001462  69.1107 291.0180 13.14501282140769
ONEWEB-0666             
1 55826U 23029AG  26026.29267592  .00000096  00000+0  20376-3 0  9995
2 55826  87.9220 302.7989 0002176  93.0640 267.0742 13.20773356142420
ONEWEB-0667             
1 55827U 23029AH  26026.05909823  .00000072  00000+0  14487-3 0  9990
2 55827  87.9231 302.7825 0001622  70.1433 289.9876 13.20772811142384
ONEWEB-0669             
1 55828U 23029AJ  26026.28163734  .00000050  00000+0  90658-4 0  9990
2 55828  87.9221 302.7675 0002291  72.5241 287.6142 13.20772092142419
ONEWEB-0670             
1 55829U 23029AK  26026.25262351  .00000346  00000+0  89823-3 0  9992
2 55829  87.9023 318.0445 0001808  65.1514 294.9803 13.14502821140786
ONEWEB-0671             
1 55830U 23029AL  26026.28610423  .00000064  00000+0  12631-3 0  9994
2 55830  87.9240 333.2200 0001694  74.6413 285.4907 13.19726048140181
ONEWEB-0672             
1 55831U 23029AM  26026.12538469 -.00000184  00000+0 -48464-3 0  9995
2 55831  87.9227 302.7812 0001902  79.7097 280.4251 13.20771688142397
ONEWEB-0673             
1 55832U 23029AN  26026.26319698  .00000140  00000+0  31838-3 0  9999
2 55832  87.9245 333.2087 0001773  74.7226 285.4103 13.19727285140184
ONEWEB-0674             
1 55833U 23029AP  26026.29702889 -.00000144  00000+0 -42343-3 0  9990
2 55833  87.9021 318.0130 0001833  62.7050 297.4266 13.14504151140774
ONEWEB-0675             
1 55834U 23029AQ  26026.27820257  .00000222  00000+0  52151-3 0  9992
2 55834  87.9241 333.2257 0001739  93.8952 266.2380 13.19727484140209
