[{"OBJECT_NAME":"ONEWEB-0658","OBJECT_ID":"2023-029Z","EPOCH":"2026-01-26T03:20:27.529728","MEAN_MOTION":13.19726079,"ECCENTRICITY":0.00013423,"INCLINATION":87.925,"RA_OF_ASC_NODE":333.2112,"ARG_OF_PERICENTER":84.6707,"MEAN_ANOMALY":275.4579,"EPHEMERIS_TYPE":0,"CLASSIFICATION_TYPE":"U","NORAD_CAT_ID":55819,"ELEMENT_SET_NO":999,"REV_AT_EPOCH":14018,"BSTAR":0.00013126526,"MEAN_MOTION_DOT":6.5e-7,"MEAN_MOTION_DDOT":0},{"OBJECT_NAME":"ONEWEB-0660","OBJECT_ID":"2023-029AA","EPOCH":"2026-01-26T04:00:28.213344","MEAN_MOTION":13.14503475,"ECCENTRICITY":0.0001583,"INCLINATION":87.9034,"RA_OF_ASC_NODE":318.002,"ARG_OF_PERICENTER":68.5824,"MEAN_ANOMALY":291.5475,"EPHEMERIS_TYPE":0,"CLASSIFICATION_TYPE":"U","NORAD_CAT_ID":55820,"ELEMENT_SET_NO":999,"REV_AT_EPOCH":14074,"BSTAR":0.00042186158,"MEAN_MOTION_DOT":1.69e-6,"MEAN_MOTION_DDOT":0},{"OBJECT_NAME":"ONEWEB-0661","OBJECT_ID":"2023-029AB","EPOCH":"2026-01-26T06:40:19.276032","MEAN_MOTION":13.14503525,"ECCENTRICITY":0.00017053,"INCLINATION":87.902,"RA_OF_ASC_NODE":318.0409,"ARG_OF_PERICENTER":66.6279,"MEAN_ANOMALY":293.503,"EPHEMERIS_TYPE":0,"CLASSIFICATION_TYPE":"U","NORAD_CAT_ID":55821,"ELEMENT_SET_NO":999,"REV_AT_EPOCH":14074,"BSTAR":0.00015213262,"MEAN_MOTION_DOT":6.9e-7,"MEAN_MOTION_DDOT":0},{"OBJECT_NAME":"ONEWEB-0662","OBJECT_ID":"2023-029AC","EPOCH":"2026-01-26T07:30:31.750272","MEAN_MOTION":13.14503453,"ECCENTRICITY":0.00015411,"INCLINATION":87.9022,"RA_OF_ASC_NODE":318.0408,"ARG_OF_PERICENTER":68.65,"MEAN_ANOMALY":291.4794,"EPHEMERIS_TYPE":0,"CLASSIFICATION_TYPE":"U","NORAD_CAT_ID":55822,"ELEMENT_SET_NO":999,"REV_AT_EPOCH":14079,"BSTAR":-0.00037837414,"MEAN_MOTION_DOT":-1.28e-6,"MEAN_MOTION_DDOT":0},{"OBJECT_NAME":"ONEWEB-0663","OBJECT_ID":"2023-029AD","EPOCH":"2026-01-26T06:42:56.684736","MEAN_MOTION":13.20858273,"ECCENTRICITY":0.00013096,"INCLINATION":87.9241,"RA_OF_ASC_NODE":302.8134,"ARG_OF_PERICENTER":67.8213,"MEAN_ANOMALY":292.3059,"EPHEMERIS_TYPE":0,"CLASSIFICATION_TYPE":"U","NORAD_CAT_ID":55823,"ELEMENT_SET_NO":999,"REV_AT_EPOCH":14241,"BSTAR":0.00019509314,"MEAN_MOTION_DOT":9.2e-7,"MEAN_MOTION_DDOT":0},{"OBJECT_NAME":"ONEWEB-0664","OBJECT_ID":"2023-029AE","EPOCH":"2026-01-26T07:10:31.951488","MEAN_MOTION":13.20774056,"ECCENTRICITY":0.00018869,"INCLINATION":87.9219,"RA_OF_ASC_NODE":302.8079,"ARG_OF_PERICENTER":66.5782,"MEAN_ANOMALY":293.555,"EPHEMERIS_TYPE":0,"CLASSIFICATION_TYPE":"U","NORAD_CAT_ID":55824,"ELEMENT_SET_NO":999,"REV_AT_EPOCH":14241,"BSTAR":5.4799457e-5,"MEAN_MOTION_DOT":3.5e-7,"MEAN_MOTION_DDOT":0},{"OBJECT_NAME":"ONEWEB-0665","OBJECT_ID":"2023-029AF","EPOCH":"2026-01-26T06:35:42.961920","MEAN_MOTION":13.14501282,"ECCENTRICITY":0.00014624,"INCLINATION":87.9026,"RA_OF_ASC_NODE":318.0203,"ARG_OF_PERICENTER":69.1107,"MEAN_ANOMALY":291.018,"EPHEMERIS_TYPE":0,"CLASSIFICATION_TYPE":"U","NORAD_CAT_ID":55825,"ELEMENT_SET_NO":999,"REV_AT_EPOCH":14076,"BSTAR":9.7746124e-5,"MEAN_MOTION_DOT":4.9e-7,"MEAN_MOTION_DDOT":0},{"OBJECT_NAME":"ONEWEB-0666","OBJECT_ID":"2023-029AG","EPOCH":"2026-01-26T07:01:27.199488","MEAN_MOTION":13.20773356,"ECCENTRICITY":0.00021766,"INCLINATION":87.922,"RA_OF_ASC_NODE":302.7989,"ARG_OF_PERICENTER":93.064,"MEAN_ANOMALY":267.0742,"EPHEMERIS_TYPE":0,"CLASSIFICATION_TYPE":"U","NORAD_CAT_ID":55826,"ELEMENT_SET_NO":999,"REV_AT_EPOCH":14242,"BSTAR":0.00020375852,"MEAN_MOTION_DOT":9.6e-7,"MEAN_MOTION_DDOT":0},{"OBJECT_NAME":"ONEWEB-0667","OBJECT_ID":"2023-029AH","EPOCH":"2026-01-26T01:25:06.087072","MEAN_MOTION":13.20772811,"ECCENTRICITY":0.00016221,"INCLINATION":87.9231,"RA_OF_ASC_NODE":302.7825,"ARG_OF_PERICENTER":70.1433,"MEAN_ANOMALY":289.9876,"EPHEMERIS_TYPE":0,"CLASSIFICATION_TYPE":"U","NORAD_CAT_ID":55827,"ELEMENT_SET_NO":999,"REV_AT_EPOCH":14238,"BSTAR":0.00014487272,"MEAN_MOTION_DOT":7.2e-7,"MEAN_MOTION_DDOT":0},{"OBJECT_NAME":"ONEWEB-0669","OBJECT_ID":"2023-029AJ","EPOCH":"2026-01-26T06:45:33.466176","MEAN_MOTION":13.20772092,"ECCENTRICITY":0.00022911,"INCLINATION":87.9221,"RA_OF_ASC_NODE":302.7675,"ARG_OF_PERICENTER":72.5241,"MEAN_ANOMALY":287.6142,"EPHEMERIS_TYPE":0,"CLASSIFICATION_TYPE":"U","NORAD_CAT_ID":55828,"ELEMENT_SET_NO":999,"REV_AT_EPOCH":14241,"BSTAR":9.0657707e-5,"MEAN_MOTION_DOT":5.0e-7,"MEAN_MOTION_DDOT":0},{"OBJECT_NAME":"ONEWEB-0670","OBJECT_ID":"2023-029AK","EPOCH":"2026-01-26T06:03:46.671264","MEAN_MOTION":13.14502821,"ECCENTRICITY":0.00018088,"INCLINATION":87.9023,"RA_OF_ASC_NODE":318.0445,"ARG_OF_PERICENTER":65.1514,"MEAN_ANOMALY":294.9803,"EPHEMERIS_TYPE":0,"CLASSIFICATION_TYPE":"U","NORAD_CAT_ID":55829,"ELEMENT_SET_NO":999,"REV_AT_EPOCH":14078,"BSTAR":0.00089822781,"MEAN_MOTION_DOT":3.46e-6,"MEAN_MOTION_DDOT":0},{"OBJECT_NAME":"ONEWEB-0671","OBJECT_ID":"2023-029AL","EPOCH":"2026-01-26T06:51:59.405472","MEAN_MOTION":13.19726048,"ECCENTRICITY":0.00016949,"INCLINATION":87.924,"RA_OF_ASC_NODE":333.22,"ARG_OF_PERICENTER":74.6413,"MEAN_ANOMALY":285.4907,"EPHEMERIS_TYPE":0,"CLASSIFICATION_TYPE":"U","NORAD_CAT_ID":55830,"ELEMENT_SET_NO":999,"REV_AT_EPOCH":14018,"BSTAR":0.00012630503,"MEAN_MOTION_DOT":6.4e-7,"MEAN_MOTION_DDOT":0},{"OBJECT_NAME":"ONEWEB-0672","OBJECT_ID":"2023-029AM","EPOCH":"2026-01-26T03:00:33.237216","MEAN_MOTION":13.20771688,"ECCENTRICITY":0.00019027,"INCLINATION":87.9227,"RA_OF_ASC_NODE":302.7812,"ARG_OF_PERICENTER":79.7097,"MEAN_ANOMALY":280.4251,"EPHEMERIS_TYPE":0,"CLASSIFICATION_TYPE":"U","NORAD_CAT_ID":55831,"ELEMENT_SET_NO":999,"REV_AT_EPOCH":14239,"BSTAR":-0.00048464482,"MEAN_MOTION_DOT":-1.84e-6,"MEAN_MOTION_DDOT":0},{"OBJECT_NAME":"ONEWEB-0673","OBJECT_ID":"2023-029AN","EPOCH":"2026-01-26T06:19:00.219072","MEAN_MOTION":13.19727285,"ECCENTRICITY":0.00017739,"INCLINATION":87.9245,"RA_OF_ASC_NODE":333.2087,"ARG_OF_PERICENTER":74.7226,"MEAN_ANOMALY":285.4103,"EPHEMERIS_TYPE":0,"CLASSIFICATION_TYPE":"U","NORAD_CAT_ID":55832,"ELEMENT_SET_NO":999,"REV_AT_EPOCH":14018,"BSTAR":0.00031837746,"MEAN_MOTION_DOT":1.4e-6,"MEAN_MOTION_DDOT":0},{"OBJECT_NAME":"ONEWEB-0674","OBJECT_ID":"2023-029AP","EPOCH":"2026-01-26T07:07:43.296096","MEAN_MOTION":13.14504151,"ECCENTRICITY":0.00018339,"INCLINATION":87.9021,"RA_OF_ASC_NODE":318.013,"ARG_OF_PERICENTER":62.705,"MEAN_ANOMALY":297.4266,"EPHEMERIS_TYPE":0,"CLASSIFICATION_TYPE":"U","NORAD_CAT_ID":55833,"ELEMENT_SET_NO":999,"REV_AT_EPOCH":14077,"BSTAR":-0.00042342576,"MEAN_MOTION_DOT":-1.44e-6,"MEAN_MOTION_DDOT":0},{"OBJECT_NAME":"ONEWEB-0675","OBJECT_ID":"2023-029AQ","EPOCH":"2026-01-26T06:40:36.702048","MEAN_MOTION":13.19727484,"ECCENTRICITY":0.00017393,"INCLINATION":87.9241,"RA_OF_ASC_NODE":333.2257,"ARG_OF_PERICENTER":93.8952,"MEAN_ANOMALY":266.238,"EPHEMERIS_TYPE":0,"CLASSIFICATION_TYPE":"U","NORAD_CAT_ID":55834,"ELEMENT_SET_NO":999,"REV_AT_EPOCH":14020,"BSTAR":0.0005215098,"MEAN_MOTION_DOT":2.22e-6,"MEAN_MOTION_DDOT":0}]
